{
  "type": "FeatureCollection",
  "features": [
    {
      "type": "Feature",
      "properties": {
        "norad_id": 37846,
        "name": "GSAT0101 (GALILEO-PFM)",
        "group": "gnss",
        "lat": 2.0290661380686523,
        "lon": 165.08393643408263,
        "alt_km": 23229.787460846317,
        "timestamp": "2025-12-27T20:30:59.526936+00:00",
        "meta_object_name": "GSAT0101 (GALILEO-PFM)",
        "meta_object_id": "2011-060A",
        "meta_epoch": "2025-12-24T15:10:54.850656",
        "meta_mean_motion": 1.70475643,
        "meta_eccentricity": 0.00032614,
        "meta_inclination": 57.05,
        "meta_ra_of_asc_node": 346.4975,
        "meta_arg_of_pericenter": 321.0017,
        "meta_mean_anomaly": 38.9828,
        "meta_ephemeris_type": 0,
        "meta_classification_type": "U",
        "meta_norad_cat_id": 37846,
        "meta_element_set_no": 999,
        "meta_rev_at_epoch": 8814,
        "meta_bstar": 0,
        "meta_mean_motion_dot": -6.1e-07,
        "meta_mean_motion_ddot": 0,
        "tle_line1": "1 37846U 11060A   25358.63257929 -.00000061  00000+0  00000+0 0  9998",
        "tle_line2": "2 37846  57.0500 346.4975 0003261 321.0017  38.9828  1.70475643 88147"
      },
      "geometry": {
        "type": "Point",
        "coordinates": [
          165.08393643408263,
          2.0290661380686523
        ]
      }
    },
    {
      "type": "Feature",
      "properties": {
        "norad_id": 37847,
        "name": "GSAT0102 (GALILEO-FM2)",
        "group": "gnss",
        "lat": -34.91750114291695,
        "lon": -166.681388422633,
        "alt_km": 23226.307329915922,
        "timestamp": "2025-12-27T20:30:59.526948+00:00",
        "meta_object_name": "GSAT0102 (GALILEO-FM2)",
        "meta_object_id": "2011-060B",
        "meta_epoch": "2025-12-22T11:58:40.586304",
        "meta_mean_motion": 1.70475957,
        "meta_eccentricity": 0.00051595,
        "meta_inclination": 57.0512,
        "meta_ra_of_asc_node": 346.5558,
        "meta_arg_of_pericenter": 313.0615,
        "meta_mean_anomaly": 223.0229,
        "meta_ephemeris_type": 0,
        "meta_classification_type": "U",
        "meta_norad_cat_id": 37847,
        "meta_element_set_no": 999,
        "meta_rev_at_epoch": 8811,
        "meta_bstar": 0,
        "meta_mean_motion_dot": -6.5e-07,
        "meta_mean_motion_ddot": 0,
        "tle_line1": "1 37847U 11060B   25356.49908086 -.00000065  00000+0  00000+0 0  9992",
        "tle_line2": "2 37847  57.0512 346.5558 0005159 313.0615 223.0229  1.70475957 88119"
      },
      "geometry": {
        "type": "Point",
        "coordinates": [
          -166.681388422633,
          -34.91750114291695
        ]
      }
    },
    {
      "type": "Feature",
      "properties": {
        "norad_id": 37867,
        "name": "COSMOS 2476 (744)",
        "group": "gnss",
        "lat": 49.29539096896769,
        "lon": -133.83854196293888,
        "alt_km": 19147.27763668283,
        "timestamp": "2025-12-27T20:30:59.526959+00:00",
        "meta_object_name": "COSMOS 2476 (744)",
        "meta_object_id": "2011-064A",
        "meta_epoch": "2025-12-27T05:38:18.293280",
        "meta_mean_motion": 2.13103875,
        "meta_eccentricity": 0.00245828,
        "meta_inclination": 65.1694,
        "meta_ra_of_asc_node": 78.6813,
        "meta_arg_of_pericenter": 235.16,
        "meta_mean_anomaly": 132.8776,
        "meta_ephemeris_type": 0,
        "meta_classification_type": "U",
        "meta_norad_cat_id": 37867,
        "meta_element_set_no": 999,
        "meta_rev_at_epoch": 11010,
        "meta_bstar": 0,
        "meta_mean_motion_dot": -1.3e-07,
        "meta_mean_motion_ddot": 0,
        "tle_line1": "1 37867U 11064A   25361.23493395 -.00000013  00000+0  00000+0 0  9991",
        "tle_line2": "2 37867  65.1694  78.6813 0024582 235.1600 132.8776  2.13103875110102"
      },
      "geometry": {
        "type": "Point",
        "coordinates": [
          -133.83854196293888,
          49.29539096896769
        ]
      }
    },
    {
      "type": "Feature",
      "properties": {
        "norad_id": 37868,
        "name": "COSMOS 2477 (745)",
        "group": "gnss",
        "lat": -48.2655560205666,
        "lon": 47.541364125237486,
        "alt_km": 19115.9005392758,
        "timestamp": "2025-12-27T20:30:59.526971+00:00",
        "meta_object_name": "COSMOS 2477 (745)",
        "meta_object_id": "2011-064B",
        "meta_epoch": "2025-12-24T15:22:57.950400",
        "meta_mean_motion": 2.13103036,
        "meta_eccentricity": 0.00215718,
        "meta_inclination": 65.1748,
        "meta_ra_of_asc_node": 78.8466,
        "meta_arg_of_pericenter": 235.4688,
        "meta_mean_anomaly": 123.4303,
        "meta_ephemeris_type": 0,
        "meta_classification_type": "U",
        "meta_norad_cat_id": 37868,
        "meta_element_set_no": 999,
        "meta_rev_at_epoch": 11003,
        "meta_bstar": 0,
        "meta_mean_motion_dot": 1e-08,
        "meta_mean_motion_ddot": 0,
        "tle_line1": "1 37868U 11064B   25358.64094850  .00000001  00000+0  00000+0 0  9992",
        "tle_line2": "2 37868  65.1748  78.8466 0021571 235.4688 123.4303  2.13103036110036"
      },
      "geometry": {
        "type": "Point",
        "coordinates": [
          47.541364125237486,
          -48.2655560205666
        ]
      }
    },
    {
      "type": "Feature",
      "properties": {
        "norad_id": 37869,
        "name": "COSMOS 2475 (743)",
        "group": "gnss",
        "lat": -63.52637921422742,
        "lon": -33.133440077645396,
        "alt_km": 19069.35636263418,
        "timestamp": "2025-12-27T20:30:59.526984+00:00",
        "meta_object_name": "COSMOS 2475 (743)",
        "meta_object_id": "2011-064C",
        "meta_epoch": "2025-12-26T02:48:59.782176",
        "meta_mean_motion": 2.13101658,
        "meta_eccentricity": 0.00268162,
        "meta_inclination": 65.1822,
        "meta_ra_of_asc_node": 78.8169,
        "meta_arg_of_pericenter": 249.2724,
        "meta_mean_anomaly": 118.1607,
        "meta_ephemeris_type": 0,
        "meta_classification_type": "U",
        "meta_norad_cat_id": 37869,
        "meta_element_set_no": 999,
        "meta_rev_at_epoch": 11008,
        "meta_bstar": 0,
        "meta_mean_motion_dot": -5e-08,
        "meta_mean_motion_ddot": 0,
        "tle_line1": "1 37869U 11064C   25360.11735859 -.00000005  00000+0  00000+0 0  9994",
        "tle_line2": "2 37869  65.1822  78.8169 0026816 249.2724 118.1607  2.13101658110082"
      },
      "geometry": {
        "type": "Point",
        "coordinates": [
          -33.133440077645396,
          -63.52637921422742
        ]
      }
    },
    {
      "type": "Feature",
      "properties": {
        "norad_id": 37948,
        "name": "BEIDOU-2 IGSO-5 (C10)",
        "group": "gnss",
        "lat": -31.38946585539602,
        "lon": 126.96231787000495,
        "alt_km": 35324.44526246184,
        "timestamp": "2025-12-27T20:30:59.526995+00:00",
        "meta_object_name": "BEIDOU-2 IGSO-5 (C10)",
        "meta_object_id": "2011-073A",
        "meta_epoch": "2025-12-26T17:38:23.606880",
        "meta_mean_motion": 1.00287779,
        "meta_eccentricity": 0.01096357,
        "meta_inclination": 47.994,
        "meta_ra_of_asc_node": 273.6869,
        "meta_arg_of_pericenter": 222.0715,
        "meta_mean_anomaly": 318.062,
        "meta_ephemeris_type": 0,
        "meta_classification_type": "U",
        "meta_norad_cat_id": 37948,
        "meta_element_set_no": 999,
        "meta_rev_at_epoch": 5140,
        "meta_bstar": 0,
        "meta_mean_motion_dot": -1.46e-06,
        "meta_mean_motion_ddot": 0,
        "tle_line1": "1 37948U 11073A   25360.73499545 -.00000146  00000+0  00000+0 0  9995",
        "tle_line2": "2 37948  47.9940 273.6869 0109635 222.0715 318.0620  1.00287779 51401"
      },
      "geometry": {
        "type": "Point",
        "coordinates": [
          126.96231787000495,
          -31.38946585539602
        ]
      }
    },
    {
      "type": "Feature",
      "properties": {
        "norad_id": 37951,
        "name": "LUCH 5A (SDCM/PRN 140)",
        "group": "gnss",
        "lat": 5.878068193646902,
        "lon": -148.4276293792217,
        "alt_km": 35774.23702045911,
        "timestamp": "2025-12-27T20:30:59.527008+00:00",
        "meta_object_name": "LUCH 5A (SDCM/PRN 140)",
        "meta_object_id": "2011-074B",
        "meta_epoch": "2025-12-27T12:05:03.090336",
        "meta_mean_motion": 1.00268832,
        "meta_eccentricity": 0.0005364,
        "meta_inclination": 8.3153,
        "meta_ra_of_asc_node": 76.3658,
        "meta_arg_of_pericenter": 193.2203,
        "meta_mean_anomaly": 174.9069,
        "meta_ephemeris_type": 0,
        "meta_classification_type": "U",
        "meta_norad_cat_id": 37951,
        "meta_element_set_no": 999,
        "meta_rev_at_epoch": 5133,
        "meta_bstar": 0,
        "meta_mean_motion_dot": -3.1e-07,
        "meta_mean_motion_ddot": 0,
        "tle_line1": "1 37951U 11074B   25361.50350799 -.00000031  00000+0  00000+0 0  9996",
        "tle_line2": "2 37951   8.3153  76.3658 0005364 193.2203 174.9069  1.00268832 51338"
      },
      "geometry": {
        "type": "Point",
        "coordinates": [
          -148.4276293792217,
          5.878068193646902
        ]
      }
    }
  ]
}